{
 "generated_at": "2026-07-02T08:12:02Z",
 "sources": [
  {
   "name": "CelesTrak",
   "url": "https://celestrak.org/NORAD/elements/",
   "license": "frei verfügbar; Attribution. Ursprünglich USSPACECOM/Space-Track."
  },
  {
   "name": "GCAT (J. McDowell, planet4589.org)",
   "url": "https://planet4589.org/space/gcat/",
   "license": "CC-BY 4.0"
  }
 ],
 "satellites": [
  {
   "norad": 39766,
   "name": "ALOS-2",
   "intl": "2014-029A",
   "group": "resource",
   "gcat": {
    "class": "C",
    "category": "IMG",
    "owner": "JAXA",
    "state": "J"
   },
   "omm": {
    "OBJECT_NAME": "ALOS-2",
    "OBJECT_ID": "2014-029A",
    "EPOCH": "2026-06-30T20:50:50.445024",
    "MEAN_MOTION": 14.79474729,
    "ECCENTRICITY": 0.0001598,
    "INCLINATION": 97.9232,
    "RA_OF_ASC_NODE": 278.8362,
    "ARG_OF_PERICENTER": 87.511,
    "MEAN_ANOMALY": 272.6284,
    "EPHEMERIS_TYPE": 0,
    "CLASSIFICATION_TYPE": "U",
    "NORAD_CAT_ID": 39766,
    "ELEMENT_SET_NO": 999,
    "REV_AT_EPOCH": 65360,
    "BSTAR": 0.00010488,
    "MEAN_MOTION_DOT": 0.00000732,
    "MEAN_MOTION_DDOT": 0
   }
  },
  {
   "norad": 60182,
   "name": "ALOS-4 (DAICHI-4)",
   "intl": "2024-123A",
   "group": "resource",
   "gcat": {
    "class": "C",
    "category": "IMG",
    "owner": "JAXA",
    "state": "J"
   },
   "omm": {
    "OBJECT_NAME": "ALOS-4 (DAICHI-4)",
    "OBJECT_ID": "2024-123A",
    "EPOCH": "2026-07-01T21:39:34.717824",
    "MEAN_MOTION": 14.7947253,
    "ECCENTRICITY": 0.00016284,
    "INCLINATION": 97.9219,
    "RA_OF_ASC_NODE": 279.8674,
    "ARG_OF_PERICENTER": 97.5098,
    "MEAN_ANOMALY": 262.6298,
    "EPHEMERIS_TYPE": 0,
    "CLASSIFICATION_TYPE": "U",
    "NORAD_CAT_ID": 60182,
    "ELEMENT_SET_NO": 999,
    "REV_AT_EPOCH": 10805,
    "BSTAR": 0.00021750659,
    "MEAN_MOTION_DOT": 0.00001573,
    "MEAN_MOTION_DDOT": 0
   }
  },
  {
   "norad": 41785,
   "name": "ALSAT-1B",
   "intl": "2016-059C",
   "group": "resource",
   "gcat": {
    "class": "C",
    "category": "IMG",
    "owner": "ASAL",
    "state": "DZ"
   },
   "omm": {
    "OBJECT_NAME": "ALSAT-1B",
    "OBJECT_ID": "2016-059C",
    "EPOCH": "2026-07-01T23:42:59.311872",
    "MEAN_MOTION": 14.72285691,
    "ECCENTRICITY": 0.0009345,
    "INCLINATION": 97.7745,
    "RA_OF_ASC_NODE": 191.1129,
    "ARG_OF_PERICENTER": 169.3963,
    "MEAN_ANOMALY": 190.7444,
    "EPHEMERIS_TYPE": 0,
    "CLASSIFICATION_TYPE": "U",
    "NORAD_CAT_ID": 41785,
    "ELEMENT_SET_NO": 999,
    "REV_AT_EPOCH": 52275,
    "BSTAR": 0.000070971217,
    "MEAN_MOTION_DOT": 0.00000401,
    "MEAN_MOTION_DDOT": 0
   }
  },
  {
   "norad": 27424,
   "name": "AQUA",
   "intl": "2002-022A",
   "group": "resource",
   "gcat": {
    "class": "C",
    "category": "IMG",
    "owner": "GSFC",
    "state": "US"
   },
   "omm": {
    "OBJECT_NAME": "AQUA",
    "OBJECT_ID": "2002-022A",
    "EPOCH": "2026-07-01T21:39:25.816896",
    "MEAN_MOTION": 14.62180459,
    "ECCENTRICITY": 0.0000699,
    "INCLINATION": 98.4284,
    "RA_OF_ASC_NODE": 152.4798,
    "ARG_OF_PERICENTER": 79.7486,
    "MEAN_ANOMALY": 333.372,
    "EPHEMERIS_TYPE": 0,
    "CLASSIFICATION_TYPE": "U",
    "NORAD_CAT_ID": 27424,
    "ELEMENT_SET_NO": 999,
    "REV_AT_EPOCH": 28542,
    "BSTAR": 0.0001732053,
    "MEAN_MOTION_DOT": 0.00000822,
    "MEAN_MOTION_DDOT": 0
   }
  },
  {
   "norad": 29268,
   "name": "ARIRANG-2 (KOMPSAT-2)",
   "intl": "2006-031A",
   "group": "resource",
   "gcat": {
    "class": "C",
    "category": "IMG",
    "owner": "KARI",
    "state": "KR"
   },
   "omm": {
    "OBJECT_NAME": "ARIRANG-2 (KOMPSAT-2)",
    "OBJECT_ID": "2006-031A",
    "EPOCH": "2026-07-01T23:59:15.803808",
    "MEAN_MOTION": 14.64670023,
    "ECCENTRICITY": 0.00153482,
    "INCLINATION": 97.8302,
    "RA_OF_ASC_NODE": 6.7291,
    "ARG_OF_PERICENTER": 31.3151,
    "MEAN_ANOMALY": 128.1936,
    "EPHEMERIS_TYPE": 0,
    "CLASSIFICATION_TYPE": "U",
    "NORAD_CAT_ID": 29268,
    "ELEMENT_SET_NO": 999,
    "REV_AT_EPOCH": 6364,
    "BSTAR": 0.00011520572,
    "MEAN_MOTION_DOT": 0.00000569,
    "MEAN_MOTION_DDOT": 0
   }
  },
  {
   "norad": 38338,
   "name": "ARIRANG-3 (KOMPSAT-3)",
   "intl": "2012-025B",
   "group": "resource",
   "gcat": {
    "class": "C",
    "category": "IMG",
    "owner": "KARI",
    "state": "KR"
   },
   "omm": {
    "OBJECT_NAME": "ARIRANG-3 (KOMPSAT-3)",
    "OBJECT_ID": "2012-025B",
    "EPOCH": "2026-07-01T22:48:44.601408",
    "MEAN_MOTION": 14.62219363,
    "ECCENTRICITY": 0.00067608,
    "INCLINATION": 98.1178,
    "RA_OF_ASC_NODE": 140.1562,
    "ARG_OF_PERICENTER": 72.5765,
    "MEAN_ANOMALY": 287.6175,
    "EPHEMERIS_TYPE": 0,
    "CLASSIFICATION_TYPE": "U",
    "NORAD_CAT_ID": 38338,
    "ELEMENT_SET_NO": 999,
    "REV_AT_EPOCH": 75350,
    "BSTAR": 0.00010576523,
    "MEAN_MOTION_DOT": 0.00000486,
    "MEAN_MOTION_DDOT": 0
   }
  },
  {
   "norad": 39227,
   "name": "ARIRANG-5 (KOMPSAT-5)",
   "intl": "2013-042A",
   "group": "resource",
   "gcat": {
    "class": "C",
    "category": "IMG-R",
    "owner": "KARI",
    "state": "KR"
   },
   "omm": {
    "OBJECT_NAME": "ARIRANG-5 (KOMPSAT-5)",
    "OBJECT_ID": "2013-042A",
    "EPOCH": "2026-07-01T22:20:39.047136",
    "MEAN_MOTION": 15.04540352,
    "ECCENTRICITY": 0.00051196,
    "INCLINATION": 97.6194,
    "RA_OF_ASC_NODE": 9.423,
    "ARG_OF_PERICENTER": 86.9643,
    "MEAN_ANOMALY": 273.2169,
    "EPHEMERIS_TYPE": 0,
    "CLASSIFICATION_TYPE": "U",
    "NORAD_CAT_ID": 39227,
    "ELEMENT_SET_NO": 999,
    "REV_AT_EPOCH": 70607,
    "BSTAR": 0.00017510836,
    "MEAN_MOTION_DOT": 0.00002394,
    "MEAN_MOTION_DDOT": 0
   }
  },
  {
   "norad": 47719,
   "name": "ARKTIKA-M 1",
   "intl": "2021-016A",
   "group": "weather",
   "gcat": {
    "class": "C",
    "category": "MET",
    "owner": "ROSK",
    "state": "RU"
   },
   "omm": {
    "OBJECT_NAME": "ARKTIKA-M 1",
    "OBJECT_ID": "2021-016A",
    "EPOCH": "2026-06-29T22:50:46.732128",
    "MEAN_MOTION": 2.00617895,
    "ECCENTRICITY": 0.72928178,
    "INCLINATION": 63.252,
    "RA_OF_ASC_NODE": 55.7907,
    "ARG_OF_PERICENTER": 269.991,
    "MEAN_ANOMALY": 14.5481,
    "EPHEMERIS_TYPE": 0,
    "CLASSIFICATION_TYPE": "U",
    "NORAD_CAT_ID": 47719,
    "ELEMENT_SET_NO": 999,
    "REV_AT_EPOCH": 3904,
    "BSTAR": 0,
    "MEAN_MOTION_DOT": -0.00000281,
    "MEAN_MOTION_DDOT": 0
   }
  },
  {
   "norad": 58584,
   "name": "ARKTIKA-M 2",
   "intl": "2023-198A",
   "group": "weather",
   "gcat": {
    "class": "C",
    "category": "MET",
    "owner": "ROSK",
    "state": "RU"
   },
   "omm": {
    "OBJECT_NAME": "ARKTIKA-M 2",
    "OBJECT_ID": "2023-198A",
    "EPOCH": "2026-06-29T17:20:14.637696",
    "MEAN_MOTION": 2.00610643,
    "ECCENTRICITY": 0.69058771,
    "INCLINATION": 63.2199,
    "RA_OF_ASC_NODE": 152.9641,
    "ARG_OF_PERICENTER": 267.3845,
    "MEAN_ANOMALY": 18.7575,
    "EPHEMERIS_TYPE": 0,
    "CLASSIFICATION_TYPE": "U",
    "NORAD_CAT_ID": 58584,
    "ELEMENT_SET_NO": 999,
    "REV_AT_EPOCH": 1857,
    "BSTAR": 0,
    "MEAN_MOTION_DOT": 0.00000148,
    "MEAN_MOTION_DDOT": 0
   }
  },
  {
   "norad": 40298,
   "name": "ASNARO",
   "intl": "2014-070A",
   "group": "resource",
   "gcat": {
    "class": null,
    "category": "IMG",
    "owner": "JSS",
    "state": "J"
   },
   "omm": {
    "OBJECT_NAME": "ASNARO",
    "OBJECT_ID": "2014-070A",
    "EPOCH": "2026-07-01T21:50:30.828192",
    "MEAN_MOTION": 15.19650601,
    "ECCENTRICITY": 0.00066466,
    "INCLINATION": 97.3452,
    "RA_OF_ASC_NODE": 258.6271,
    "ARG_OF_PERICENTER": 122.9082,
    "MEAN_ANOMALY": 237.2794,
    "EPHEMERIS_TYPE": 0,
    "CLASSIFICATION_TYPE": "U",
    "NORAD_CAT_ID": 40298,
    "ELEMENT_SET_NO": 999,
    "REV_AT_EPOCH": 64624,
    "BSTAR": 0.00038007568,
    "MEAN_MOTION_DOT": 0.00008044,
    "MEAN_MOTION_DDOT": 0
   }
  }
 ]
}
